ACS3                    
1 59588U 24077B   24170.41788331  .00000099  00000+0  15078-3 0  9995
2 59588  97.4060 238.3124 0021643  91.7204 268.6427 13.67686565  7572
